{
    "zip_codes":[
        {"zip_code":"55016","distance":6.938,"city":"Cottage Grove","state":"MN"},
        {"zip_code":"55077","distance":9.31,"city":"Inver Grove Heights","state":"MN"},
        {"zip_code":"55071","distance":7.292,"city":"Saint Paul Park","state":"MN"},
        {"zip_code":"55076","distance":7.298,"city":"Inver Grove Heights","state":"MN"},{"zip_code":"55055","distance":4.213,"city":"Newport","state":"MN"},
        {"zip_code":"55129","distance":3.279,"city":"Saint Paul","state":"MN"},
        {"zip_code":"55075","distance":5.405,"city":"South Saint Paul","state":"MN"},
        {"zip_code":"55118","distance":8.13,"city":"Saint Paul","state":"MN"},
        {"zip_code":"55001","distance":5.982,"city":"Afton","state":"MN"},
        {"zip_code":"55125","distance":0,"city":"Saint Paul","state":"MN"},
        {"zip_code":"55107","distance":6.954,"city":"Saint Paul","state":"MN"},
        {"zip_code":"55102","distance":8.993,"city":"Saint Paul","state":"MN"},
        {"zip_code":"55119","distance":3.646,"city":"Saint Paul","state":"MN"},
        {"zip_code":"55133","distance":8.048,"city":"Saint Paul","state":"MN"},
        {"zip_code":"55144","distance":8.048,"city":"Saint Paul","state":"MN"},
        {"zip_code":"55145","distance":8.048,"city":"Saint Paul","state":"MN"},
        {"zip_code":"55146","distance":8.048,"city":"Saint Paul","state":"MN"},
        {"zip_code":"55164","distance":8.048,"city":"Saint Paul","state":"MN"},
        {"zip_code":"55165","distance":8.048,"city":"Saint Paul","state":"MN"},
        {"zip_code":"55166","distance":8.048,"city":"Saint Paul","state":"MN"},
        {"zip_code":"55168","distance":8.048,"city":"Saint Paul","state":"MN"},
        {"zip_code":"55170","distance":8.048,"city":"Saint Paul","state":"MN"},
        {"zip_code":"55171","distance":8.048,"city":"Saint Paul","state":"MN"},
        {"zip_code":"55172","distance":8.048,"city":"Saint Paul","state":"MN"},
        {"zip_code":"55175","distance":8.048,"city":"Saint Paul","state":"MN"},
        {"zip_code":"55188","distance":8.048,"city":"Saint Paul","state":"MN"},
        {"zip_code":"55169","distance":7.58,"city":"Saint Paul","state":"MN"},
        {"zip_code":"55187","distance":2.046,"city":"Saint Paul","state":"MN"},
        {"zip_code":"55043","distance":8.441,"city":"Lakeland","state":"MN"},
        {"zip_code":"55101","distance":7.804,"city":"Saint Paul","state":"MN"},
        {"zip_code":"55155","distance":7.534,"city":"Saint Paul","state":"MN"},
        {"zip_code":"55106","distance":6.28,"city":"Saint Paul","state":"MN"},
        {"zip_code":"55103","distance":9.571,"city":"Saint Paul","state":"MN"},
        {"zip_code":"55130","distance":8.002,"city":"Saint Paul","state":"MN"},
        {"zip_code":"55128","distance":4.958,"city":"Saint Paul","state":"MN"},
        {"zip_code":"55042","distance":5.021,"city":"Lake Elmo","state":"MN"},
        {"zip_code":"55117","distance":9.53,"city":"Saint Paul","state":"MN"},
        {"zip_code":"55109","distance":7.91,"city":"Saint Paul","state":"MN"},
        {"zip_code":"55090","distance":9.395,"city":"Willernie","state":"MN"}
    ]
}